[{"OBJECT_NAME":"ONEWEB-0416","OBJECT_ID":"2022-012D","EPOCH":"2025-10-02T22:12:52.615872","MEAN_MOTION":13.10374573,"ECCENTRICITY":0.00017926,"INCLINATION":87.8739,"RA_OF_ASC_NODE":87.584,"ARG_OF_PERICENTER":90.6477,"MEAN_ANOMALY":269.4856,"EPHEMERIS_TYPE":0,"CLASSIFICATION_TYPE":"U","NORAD_CAT_ID":51625,"ELEMENT_SET_NO":999,"REV_AT_EPOCH":17563,"BSTAR":0.0018681843,"MEAN_MOTION_DOT":6.65e-6,"MEAN_MOTION_DDOT":0},{"OBJECT_NAME":"ONEWEB-0422","OBJECT_ID":"2022-012E","EPOCH":"2025-10-02T22:56:09.677184","MEAN_MOTION":13.17648974,"ECCENTRICITY":0.00011769,"INCLINATION":87.908,"RA_OF_ASC_NODE":57.0011,"ARG_OF_PERICENTER":114.038,"MEAN_ANOMALY":246.0875,"EPHEMERIS_TYPE":0,"CLASSIFICATION_TYPE":"U","NORAD_CAT_ID":51626,"ELEMENT_SET_NO":999,"REV_AT_EPOCH":17993,"BSTAR":-0.00029708752,"MEAN_MOTION_DOT":-1.02e-6,"MEAN_MOTION_DDOT":0},{"OBJECT_NAME":"ONEWEB-0423","OBJECT_ID":"2022-012F","EPOCH":"2025-10-02T22:46:26.675040","MEAN_MOTION":13.17648561,"ECCENTRICITY":0.00016112,"INCLINATION":87.9083,"RA_OF_ASC_NODE":57.0117,"ARG_OF_PERICENTER":94.2556,"MEAN_ANOMALY":265.876,"EPHEMERIS_TYPE":0,"CLASSIFICATION_TYPE":"U","NORAD_CAT_ID":51627,"ELEMENT_SET_NO":999,"REV_AT_EPOCH":17982,"BSTAR":-0.00010126651,"MEAN_MOTION_DOT":-2.6e-7,"MEAN_MOTION_DDOT":0},{"OBJECT_NAME":"ONEWEB-0425","OBJECT_ID":"2022-012G","EPOCH":"2025-10-03T00:17:10.655232","MEAN_MOTION":13.10372498,"ECCENTRICITY":0.00017993,"INCLINATION":87.8738,"RA_OF_ASC_NODE":87.5359,"ARG_OF_PERICENTER":80.2836,"MEAN_ANOMALY":279.8494,"EPHEMERIS_TYPE":0,"CLASSIFICATION_TYPE":"U","NORAD_CAT_ID":51628,"ELEMENT_SET_NO":999,"REV_AT_EPOCH":17564,"BSTAR":0.0018856052,"MEAN_MOTION_DOT":6.71e-6,"MEAN_MOTION_DDOT":0},{"OBJECT_NAME":"ONEWEB-0428","OBJECT_ID":"2022-012H","EPOCH":"2025-10-02T20:08:34.236960","MEAN_MOTION":13.10377292,"ECCENTRICITY":0.00016034,"INCLINATION":87.8738,"RA_OF_ASC_NODE":87.5917,"ARG_OF_PERICENTER":95.3254,"MEAN_ANOMALY":264.8056,"EPHEMERIS_TYPE":0,"CLASSIFICATION_TYPE":"U","NORAD_CAT_ID":51629,"ELEMENT_SET_NO":999,"REV_AT_EPOCH":17558,"BSTAR":0.0012079242,"MEAN_MOTION_DOT":4.34e-6,"MEAN_MOTION_DDOT":0},{"OBJECT_NAME":"ONEWEB-0431","OBJECT_ID":"2022-012J","EPOCH":"2025-10-03T06:25:03.692640","MEAN_MOTION":13.10369755,"ECCENTRICITY":0.00019194,"INCLINATION":87.8747,"RA_OF_ASC_NODE":87.48,"ARG_OF_PERICENTER":111.7199,"MEAN_ANOMALY":248.4132,"EPHEMERIS_TYPE":0,"CLASSIFICATION_TYPE":"U","NORAD_CAT_ID":51630,"ELEMENT_SET_NO":999,"REV_AT_EPOCH":17569,"BSTAR":-0.0014378239,"MEAN_MOTION_DOT":-4.89e-6,"MEAN_MOTION_DDOT":0},{"OBJECT_NAME":"ONEWEB-0434","OBJECT_ID":"2022-012K","EPOCH":"2025-10-03T00:21:57.396960","MEAN_MOTION":13.10371666,"ECCENTRICITY":0.0001889,"INCLINATION":87.8738,"RA_OF_ASC_NODE":87.5711,"ARG_OF_PERICENTER":71.0955,"MEAN_ANOMALY":289.0377,"EPHEMERIS_TYPE":0,"CLASSIFICATION_TYPE":"U","NORAD_CAT_ID":51631,"ELEMENT_SET_NO":999,"REV_AT_EPOCH":17564,"BSTAR":0.0019251519,"MEAN_MOTION_DOT":6.85e-6,"MEAN_MOTION_DDOT":0},{"OBJECT_NAME":"ONEWEB-0435","OBJECT_ID":"2022-012L","EPOCH":"2025-10-03T00:33:53.901792","MEAN_MOTION":13.10371312,"ECCENTRICITY":0.00013131,"INCLINATION":87.8733,"RA_OF_ASC_NODE":87.5607,"ARG_OF_PERICENTER":98.0144,"MEAN_ANOMALY":262.1133,"EPHEMERIS_TYPE":0,"CLASSIFICATION_TYPE":"U","NORAD_CAT_ID":51632,"ELEMENT_SET_NO":999,"REV_AT_EPOCH":17563,"BSTAR":0.001136476,"MEAN_MOTION_DOT":4.09e-6,"MEAN_MOTION_DDOT":0},{"OBJECT_NAME":"ONEWEB-0436","OBJECT_ID":"2022-012M","EPOCH":"2025-10-03T07:41:02.247360","MEAN_MOTION":13.17648925,"ECCENTRICITY":0.00016035,"INCLINATION":87.9082,"RA_OF_ASC_NODE":56.9174,"ARG_OF_PERICENTER":103.4095,"MEAN_ANOMALY":256.7215,"EPHEMERIS_TYPE":0,"CLASSIFICATION_TYPE":"U","NORAD_CAT_ID":51633,"ELEMENT_SET_NO":999,"REV_AT_EPOCH":17985,"BSTAR":0.00022749735,"MEAN_MOTION_DOT":1.01e-6,"MEAN_MOTION_DDOT":0},{"OBJECT_NAME":"ONEWEB-0438","OBJECT_ID":"2022-012N","EPOCH":"2025-10-03T00:10:00.314112","MEAN_MOTION":13.10374248,"ECCENTRICITY":0.00017484,"INCLINATION":87.8738,"RA_OF_ASC_NODE":87.5647,"ARG_OF_PERICENTER":84.3153,"MEAN_ANOMALY":275.8174,"EPHEMERIS_TYPE":0,"CLASSIFICATION_TYPE":"U","NORAD_CAT_ID":51634,"ELEMENT_SET_NO":999,"REV_AT_EPOCH":17566,"BSTAR":0.0021790092,"MEAN_MOTION_DOT":7.73e-6,"MEAN_MOTION_DDOT":0},{"OBJECT_NAME":"ONEWEB-0439","OBJECT_ID":"2022-012P","EPOCH":"2025-10-03T05:44:39.116832","MEAN_MOTION":13.10372786,"ECCENTRICITY":0.00016359,"INCLINATION":87.8738,"RA_OF_ASC_NODE":87.5069,"ARG_OF_PERICENTER":89.9263,"MEAN_ANOMALY":270.2052,"EPHEMERIS_TYPE":0,"CLASSIFICATION_TYPE":"U","NORAD_CAT_ID":51635,"ELEMENT_SET_NO":999,"REV_AT_EPOCH":17567,"BSTAR":0.0019604494,"MEAN_MOTION_DOT":6.97e-6,"MEAN_MOTION_DDOT":0},{"OBJECT_NAME":"ONEWEB-0442","OBJECT_ID":"2022-012Q","EPOCH":"2025-10-02T22:23:20.995296","MEAN_MOTION":13.17650263,"ECCENTRICITY":0.00021894,"INCLINATION":87.9074,"RA_OF_ASC_NODE":57.0479,"ARG_OF_PERICENTER":83.1452,"MEAN_ANOMALY":276.9928,"EPHEMERIS_TYPE":0,"CLASSIFICATION_TYPE":"U","NORAD_CAT_ID":51636,"ELEMENT_SET_NO":999,"REV_AT_EPOCH":17979,"BSTAR":-4.0019209e-5,"MEAN_MOTION_DOT":-3.0e-8,"MEAN_MOTION_DDOT":0},{"OBJECT_NAME":"ONEWEB-0443","OBJECT_ID":"2022-012R","EPOCH":"2025-10-02T22:51:16.836480","MEAN_MOTION":13.17653397,"ECCENTRICITY":0.00015771,"INCLINATION":87.9068,"RA_OF_ASC_NODE":57.0506,"ARG_OF_PERICENTER":84.8604,"MEAN_ANOMALY":275.2708,"EPHEMERIS_TYPE":0,"CLASSIFICATION_TYPE":"U","NORAD_CAT_ID":51637,"ELEMENT_SET_NO":999,"REV_AT_EPOCH":17984,"BSTAR":-4.7985434e-5,"MEAN_MOTION_DOT":-6.0e-8,"MEAN_MOTION_DDOT":0},{"OBJECT_NAME":"ONEWEB-0444","OBJECT_ID":"2022-012S","EPOCH":"2025-10-02T22:10:29.008704","MEAN_MOTION":13.10375537,"ECCENTRICITY":0.00015557,"INCLINATION":87.8736,"RA_OF_ASC_NODE":87.5696,"ARG_OF_PERICENTER":90.2714,"MEAN_ANOMALY":269.8592,"EPHEMERIS_TYPE":0,"CLASSIFICATION_TYPE":"U","NORAD_CAT_ID":51638,"ELEMENT_SET_NO":999,"REV_AT_EPOCH":17564,"BSTAR":0.0017640246,"MEAN_MOTION_DOT":6.29e-6,"MEAN_MOTION_DDOT":0},{"OBJECT_NAME":"ONEWEB-0445","OBJECT_ID":"2022-012T","EPOCH":"2025-10-03T00:31:29.718336","MEAN_MOTION":13.10372561,"ECCENTRICITY":0.0001884,"INCLINATION":87.8749,"RA_OF_ASC_NODE":87.5062,"ARG_OF_PERICENTER":91.3989,"MEAN_ANOMALY":268.7354,"EPHEMERIS_TYPE":0,"CLASSIFICATION_TYPE":"U","NORAD_CAT_ID":51639,"ELEMENT_SET_NO":999,"REV_AT_EPOCH":17566,"BSTAR":0.0011557803,"MEAN_MOTION_DOT":4.16e-6,"MEAN_MOTION_DDOT":0},{"OBJECT_NAME":"ONEWEB-0446","OBJECT_ID":"2022-012U","EPOCH":"2025-10-02T22:08:05.794656","MEAN_MOTION":13.10375332,"ECCENTRICITY":0.00019275,"INCLINATION":87.8737,"RA_OF_ASC_NODE":87.5859,"ARG_OF_PERICENTER":94.2511,"MEAN_ANOMALY":265.8837,"EPHEMERIS_TYPE":0,"CLASSIFICATION_TYPE":"U","NORAD_CAT_ID":51640,"ELEMENT_SET_NO":999,"REV_AT_EPOCH":17563,"BSTAR":0.0015237851,"MEAN_MOTION_DOT":5.45e-6,"MEAN_MOTION_DDOT":0},{"OBJECT_NAME":"ONEWEB-0448","OBJECT_ID":"2022-012V","EPOCH":"2025-10-03T00:05:13.384032","MEAN_MOTION":13.10373848,"ECCENTRICITY":0.0001637,"INCLINATION":87.874,"RA_OF_ASC_NODE":87.569,"ARG_OF_PERICENTER":92.2315,"MEAN_ANOMALY":267.9,"EPHEMERIS_TYPE":0,"CLASSIFICATION_TYPE":"U","NORAD_CAT_ID":51641,"ELEMENT_SET_NO":999,"REV_AT_EPOCH":17561,"BSTAR":0.001817282,"MEAN_MOTION_DOT":6.47e-6,"MEAN_MOTION_DDOT":0}]
