ONEWEB-0416             
1 51625U 22012D   25275.92560898  .00000665  00000+0  18682-2 0  9997
2 51625  87.8739  87.5840 0001792  90.6477 269.4856 13.10374573175633
ONEWEB-0422             
1 51626U 22012E   25275.95566756 -.00000102  00000+0 -29709-3 0  9991
2 51626  87.9080  57.0011 0001176 114.0380 246.0875 13.17648974179931
ONEWEB-0423             
1 51627U 22012F   25275.94891985 -.00000026  00000+0 -10127-3 0  9995
2 51627  87.9083  57.0117 0001611  94.2556 265.8760 13.17648561179822
ONEWEB-0425             
1 51628U 22012G   25276.01192888  .00000671  00000+0  18856-2 0  9991
2 51628  87.8738  87.5359 0001799  80.2836 279.8494 13.10372498175649
ONEWEB-0428             
1 51629U 22012H   25275.83928515  .00000434  00000+0  12079-2 0  9993
2 51629  87.8738  87.5917 0001603  95.3254 264.8056 13.10377292175583
ONEWEB-0431             
1 51630U 22012J   25276.26740385 -.00000489  00000+0 -14378-2 0  9996
2 51630  87.8747  87.4800 0001919 111.7199 248.4132 13.10369755175696
ONEWEB-0434             
1 51631U 22012K   25276.01524765  .00000685  00000+0  19252-2 0  9994
2 51631  87.8738  87.5711 0001889  71.0955 289.0377 13.10371666175644
ONEWEB-0435             
1 51632U 22012L   25276.02354053  .00000409  00000+0  11365-2 0  9998
2 51632  87.8733  87.5607 0001313  98.0144 262.1133 13.10371312175634
ONEWEB-0436             
1 51633U 22012M   25276.32016490  .00000101  00000+0  22750-3 0  9992
2 51633  87.9082  56.9174 0001603 103.4095 256.7215 13.17648925179852
ONEWEB-0438             
1 51634U 22012N   25276.00694808  .00000773  00000+0  21790-2 0  9990
2 51634  87.8738  87.5647 0001748  84.3153 275.8174 13.10374248175665
ONEWEB-0439             
1 51635U 22012P   25276.23934163  .00000697  00000+0  19604-2 0  9993
2 51635  87.8738  87.5069 0001635  89.9263 270.2052 13.10372786175672
ONEWEB-0442             
1 51636U 22012Q   25275.93288189 -.00000003  00000+0 -40019-4 0  9999
2 51636  87.9074  57.0479 0002189  83.1452 276.9928 13.17650263179793
ONEWEB-0443             
1 51637U 22012R   25275.95227820 -.00000006  00000+0 -47985-4 0  9999
2 51637  87.9068  57.0506 0001577  84.8604 275.2708 13.17653397179840
ONEWEB-0444             
1 51638U 22012S   25275.92394686  .00000629  00000+0  17640-2 0  9994
2 51638  87.8736  87.5696 0001555  90.2714 269.8592 13.10375537175643
ONEWEB-0445             
1 51639U 22012T   25276.02187174  .00000416  00000+0  11558-2 0  9995
2 51639  87.8749  87.5062 0001884  91.3989 268.7354 13.10372561175666
ONEWEB-0446             
1 51640U 22012U   25275.92228929  .00000545  00000+0  15238-2 0  9991
2 51640  87.8737  87.5859 0001927  94.2511 265.8837 13.10375332175630
ONEWEB-0448             
1 51641U 22012V   25276.00362713  .00000647  00000+0  18173-2 0  9996
2 51641  87.8740  87.5690 0001637  92.2315 267.9000 13.10373848175619
